SL-16 R/B               
1 23343U 94074B   25339.09910955  .00001035  00000+0  14585-3 0  9993
2 23343  97.7210   8.7072 0006994 158.1139 263.6832 14.79276617673267
SL-16 R/B               
1 23405U 94077B   25339.28852370  .00000102  00000+0  76839-4 0  9997
2 23405  70.9811 191.0891 0004573 289.7964  70.2666 14.15546019602871
ARIANE 40+ R/B          
1 23561U 95021B   25339.23203985  .00000676  00000+0  22990-3 0  9991
2 23561  98.4660  46.9112 0007719  69.5876 358.8202 14.39686751605650
SL-16 R/B               
1 23705U 95058B   25339.29085630  .00000385  00000+0  22130-3 0  9995
2 23705  71.0226  18.4437 0014899 264.5871  95.3552 14.15480065554498
SL-16 R/B               
1 24298U 96051B   25339.26475842  .00000046  00000+0  51375-4 0  9990
2 24298  70.7600  15.1066 0019267 270.6455  89.2457 14.12395337508310
ORBVIEW 2 (SEASTAR)     
1 24883U 97037A   25339.31734699  .00000646  00000+0  24112-3 0  9993
2 24883  98.8454 136.2051 0002024   5.2555 354.8651 14.35408613494939
SL-16 R/B               
1 25400U 98043G   25339.29076437  .00000168  00000+0  89248-4 0  9994
2 25400  98.8113 287.0675 0008892 290.8627  69.1600 14.26022792425535
SL-16 R/B               
1 25407U 98045B   25339.27752017  .00000037  00000+0  42728-4 0  9993
2 25407  71.0125  20.1198 0007350 188.8344 171.2651 14.16175839413734
ISS (ZARYA)             
1 25544U 98067A   25339.25291940  .00014736  00000+0  27197-3 0  9993
2 25544  51.6297 179.5463 0003585 206.2517 153.8291 15.49328184541690
CZ-4B R/B               
1 25732U 99025C   25339.12987007  .00000189  00000+0  11239-3 0  9996
2 25732  98.6778  20.5797 0036141 256.4929 164.8023 14.18240948374760
OKEAN-O                 
1 25860U 99039A   25339.15057423  .00001529  00000+0  20837-3 0  9999
2 25860  97.9613  34.9175 0000755  80.0593 280.0704 14.80141372420401
SL-16 R/B               
1 25861U 99039B   25339.15295240  .00001335  00000+0  17661-3 0  9997
2 25861  98.0135  33.3033 0014355 199.6012 160.4650 14.81570054422860
DELTA 2 R/B             
1 25876U 99041E   25339.20757540  .00002381  00000+0  42210-3 0  9998
2 25876  51.7622 318.5134 0504783  69.5665 295.8716 14.11371498349689
HELIOS 1B               
1 25977U 99064A   25339.26826729  .00004384  00000+0  49313-3 0  9993
2 25977  98.1756 233.7121 0002103  53.1502 306.9906 14.87233593671225
TERRA                   
1 25994U 99068A   25339.26935354  .00001013  00000+0  21597-3 0  9991
2 25994  97.9759  31.2276 0003464 112.9038 312.0870 14.60939476381292
SL-16 R/B               
1 26070U 00006B   25339.26844924  .00000260  00000+0  15620-3 0  9996
2 26070  71.0030 296.3666 0018094 318.9996  40.9765 14.15809074335194
TITAN 4B R/B            
1 26474U 00047B   25339.25176514  .00007056  00000+0  44894-3 0  9996
2 26474  67.9902 305.8832 0039553 153.6511 206.6662 15.08694784378664
ENVISAT                 
1 27386U 02009A   25339.33711888  .00000279  00000+0  10436-3 0  9992
2 27386  98.3588 290.2657 0001138  82.0760  34.5892 14.38995002245605
IDEFIX & ARIANE 42P R/B 
1 27422U 02021B   25339.31117018  .00000606  00000+0  24689-3 0  9999
2 27422  98.5777 274.0989 0012864 103.6661 256.5955 14.30941837230524
AQUA                    
1 27424U 02022A   25339.30579911  .00002431  00000+0  49689-3 0  9990
2 27424  98.4025 300.0643 0000847 111.3897 356.5490 14.61781360254947
CZ-4B R/B               
1 27432U 02024C   25339.14734689  .00000149  00000+0  10028-3 0  9997
2 27432  98.9010  27.9451 0049211 291.9022 127.3136 14.14525459215873
MIDORI II (ADEOS-II)    
1 27597U 02056A   25339.29447317  .00000552  00000+0  23502-3 0  9998
2 27597  98.7625 292.2122 0000222   7.1080 353.0104 14.29197994196817
H-2A R/B                
1 27601U 02056E   25338.86270360  .00000653  00000+0  24331-3 0  9991
2 27601  98.3051 297.9336 0071506  84.2452 330.0012 14.33666492200529
CZ-4B R/B               
1 28059U 03049C   25338.96177049  .00000777  00000+0  18971-3 0  9993
2 28059  98.6781 325.2321 0048598 159.5512 200.7643 14.54898778172828
CZ-2C R/B               
1 28222U 04012C   25339.27551738  .00050251  00000+0  74905-3 0  9993
2 28222  97.7434  31.2846 0016787 299.5634  60.3946 15.54780596189560
SL-16 R/B               
1 28353U 04021B   25339.26732700 -.00000098  00000+0 -26277-4 0  9993
2 28353  71.0023  70.6456 0005691 210.6772 149.4019 14.14582552109487
CZ-4B R/B               
1 28415U 04035C   25339.09230362  .00015032  00000+0  55792-3 0  9990
2 28415  97.3611   9.5395 0032021 305.9699  53.8571 15.27186481165463
CZ-2C R/B               
1 28480U 04046B   25339.24576301  .00000334  00000+0  13871-3 0  9998
2 28480  98.1983 255.0897 0140662  74.2900 287.3747 14.26935357 95039
ARIANE 5 R/B            
1 28499U 04049H   25339.30805699  .00001862  00000+0  21246-3 0  9995
2 28499  98.2520 139.3230 0083500 297.3762  61.8973 14.84985295131782
CZ-2D R/B               
1 28738U 05024B   25338.98931509  .00040276  00000+0  65383-3 0  9990
2 28738  97.3627 346.2370 0006682  31.7339 328.4316 15.52606734125056
